O3B MPOWER F1           
1 54755U 22174A   24021.54966404 -.00000023  00000+0  00000+0 0  9993
2 54755   0.0594  12.1092 0006216 300.4868 276.1585  5.00118427 21448
